FLOCK 4G-30             
1 62679U 25009BY  26068.70871344  .00013147  00000+0  49475-3 0  9999
2 62679  97.3969 150.6012 0003795 342.4152  17.6955 15.27244548121341
STARLINK-36410          
1 67337U 26003D   26068.45570974  .00036893  00000+0  13429-2 0  9999
2 67337  42.9974 228.7734 0000959 278.7996  81.2747 15.27594916  8788
